[{"OBJECT_NAME":"STARLINK-30779","OBJECT_ID":"2023-166L","EPOCH":"2026-03-09T17:33:00.459648","MEAN_MOTION":15.30191439,"ECCENTRICITY":0.00011673,"INCLINATION":53.1607,"RA_OF_ASC_NODE":219.5614,"ARG_OF_PERICENTER":91.7006,"MEAN_ANOMALY":268.4129,"EPHEMERIS_TYPE":0,"CLASSIFICATION_TYPE":"U","NORAD_CAT_ID":58160,"ELEMENT_SET_NO":999,"REV_AT_EPOCH":13318,"BSTAR":-3.6450695e-5,"MEAN_MOTION_DOT":-1.438e-5,"MEAN_MOTION_DDOT":0},{"OBJECT_NAME":"CZ-4 DEB","OBJECT_ID":"2003-049H","EPOCH":"2026-03-08T08:27:28.944576","MEAN_MOTION":15.27137095,"ECCENTRICITY":0.00307627,"INCLINATION":98.6284,"RA_OF_ASC_NODE":272.5918,"ARG_OF_PERICENTER":169.0311,"MEAN_ANOMALY":191.1601,"EPHEMERIS_TYPE":0,"CLASSIFICATION_TYPE":"U","NORAD_CAT_ID":35381,"ELEMENT_SET_NO":999,"REV_AT_EPOCH":18390,"BSTAR":0.0032047887,"MEAN_MOTION_DOT":0.00087287,"MEAN_MOTION_DDOT":0}]
